STARLINK-31187          
1 58790U 24012D   26068.96342531  .00000327  00000+0  21422-4 0  9999
2 58790  43.0030 164.0660 0001509 274.5972  85.4707 15.27574505121270
HERMES-2                
1 63243U 25052AK  26068.92847372  .00009456  00000+0  34839-3 0  9999
2 63243  97.4004 324.4926 0006340  99.4160 260.7796 15.28021069 54859
